FENGYUN 1C DEB          
1 31805U 99025CGT 17345.90690943  .00000230  00000-0  95092-4 0  9996
2 31805  98.4205 236.2446 0556211 251.3577 102.6427 13.74498187220136
